<?xml version="1.0" encoding="UTF-8"?>
<ndm xmlns:xsi="http://www.w3.org/2001/XMLSchema-instance" xsi:noNamespaceSchemaLocation="https://sanaregistry.org/r/ndmxml_unqualified/ndmxml-2.0.0-master-2.0.xsd">
<omm id="CCSDS_OMM_VERS" version="2.0">
<header><CREATION_DATE/><ORIGINATOR/></header><body><segment><metadata><OBJECT_NAME>ORBCOMM FM33</OBJECT_NAME><OBJECT_ID>1999-065D</OBJECT_ID><CENTER_NAME>EARTH</CENTER_NAME><REF_FRAME>TEME</REF_FRAME><TIME_SYSTEM>UTC</TIME_SYSTEM><MEAN_ELEMENT_THEORY>SGP4</MEAN_ELEMENT_THEORY></metadata><data><meanElements><EPOCH>2024-12-03T01:04:26.506272</EPOCH><MEAN_MOTION>14.38993313</MEAN_MOTION><ECCENTRICITY>.0008481</ECCENTRICITY><INCLINATION>45.0270</INCLINATION><RA_OF_ASC_NODE>210.8469</RA_OF_ASC_NODE><ARG_OF_PERICENTER>150.3653</ARG_OF_PERICENTER><MEAN_ANOMALY>209.7678</MEAN_ANOMALY></meanElements><tleParameters><EPHEMERIS_TYPE>0</EPHEMERIS_TYPE><CLASSIFICATION_TYPE>U</CLASSIFICATION_TYPE><NORAD_CAT_ID>25983</NORAD_CAT_ID><ELEMENT_SET_NO>999</ELEMENT_SET_NO><REV_AT_EPOCH>30780</REV_AT_EPOCH><BSTAR>.87128E-3</BSTAR><MEAN_MOTION_DOT>.2573E-4</MEAN_MOTION_DOT><MEAN_MOTION_DDOT>0</MEAN_MOTION_DDOT></tleParameters></data></segment></body></omm>
<omm id="CCSDS_OMM_VERS" version="2.0">
<header><CREATION_DATE/><ORIGINATOR/></header><body><segment><metadata><OBJECT_NAME>ORBCOMM FM36</OBJECT_NAME><OBJECT_ID>1999-065E</OBJECT_ID><CENTER_NAME>EARTH</CENTER_NAME><REF_FRAME>TEME</REF_FRAME><TIME_SYSTEM>UTC</TIME_SYSTEM><MEAN_ELEMENT_THEORY>SGP4</MEAN_ELEMENT_THEORY></metadata><data><meanElements><EPOCH>2024-12-03T14:02:48.764832</EPOCH><MEAN_MOTION>14.37102079</MEAN_MOTION><ECCENTRICITY>.0004062</ECCENTRICITY><INCLINATION>45.0399</INCLINATION><RA_OF_ASC_NODE>297.1976</RA_OF_ASC_NODE><ARG_OF_PERICENTER>13.0884</ARG_OF_PERICENTER><MEAN_ANOMALY>347.0069</MEAN_ANOMALY></meanElements><tleParameters><EPHEMERIS_TYPE>0</EPHEMERIS_TYPE><CLASSIFICATION_TYPE>U</CLASSIFICATION_TYPE><NORAD_CAT_ID>25984</NORAD_CAT_ID><ELEMENT_SET_NO>999</ELEMENT_SET_NO><REV_AT_EPOCH>30627</REV_AT_EPOCH><BSTAR>.1345E-2</BSTAR><MEAN_MOTION_DOT>.3892E-4</MEAN_MOTION_DOT><MEAN_MOTION_DDOT>0</MEAN_MOTION_DDOT></tleParameters></data></segment></body></omm>
<omm id="CCSDS_OMM_VERS" version="2.0">
<header><CREATION_DATE/><ORIGINATOR/></header><body><segment><metadata><OBJECT_NAME>ORBCOMM FM35</OBJECT_NAME><OBJECT_ID>1999-065F</OBJECT_ID><CENTER_NAME>EARTH</CENTER_NAME><REF_FRAME>TEME</REF_FRAME><TIME_SYSTEM>UTC</TIME_SYSTEM><MEAN_ELEMENT_THEORY>SGP4</MEAN_ELEMENT_THEORY></metadata><data><meanElements><EPOCH>2024-12-03T05:25:17.647680</EPOCH><MEAN_MOTION>14.36271299</MEAN_MOTION><ECCENTRICITY>.0001663</ECCENTRICITY><INCLINATION>45.0402</INCLINATION><RA_OF_ASC_NODE>302.4877</RA_OF_ASC_NODE><ARG_OF_PERICENTER>136.4038</ARG_OF_PERICENTER><MEAN_ANOMALY>223.6941</MEAN_ANOMALY></meanElements><tleParameters><EPHEMERIS_TYPE>0</EPHEMERIS_TYPE><CLASSIFICATION_TYPE>U</CLASSIFICATION_TYPE><NORAD_CAT_ID>25985</NORAD_CAT_ID><ELEMENT_SET_NO>999</ELEMENT_SET_NO><REV_AT_EPOCH>30660</REV_AT_EPOCH><BSTAR>.11069E-2</BSTAR><MEAN_MOTION_DOT>.3122E-4</MEAN_MOTION_DOT><MEAN_MOTION_DDOT>0</MEAN_MOTION_DDOT></tleParameters></data></segment></body></omm>
<omm id="CCSDS_OMM_VERS" version="2.0">
<header><CREATION_DATE/><ORIGINATOR/></header><body><segment><metadata><OBJECT_NAME>ORBCOMM FM34</OBJECT_NAME><OBJECT_ID>1999-065G</OBJECT_ID><CENTER_NAME>EARTH</CENTER_NAME><REF_FRAME>TEME</REF_FRAME><TIME_SYSTEM>UTC</TIME_SYSTEM><MEAN_ELEMENT_THEORY>SGP4</MEAN_ELEMENT_THEORY></metadata><data><meanElements><EPOCH>2024-12-03T09:44:25.429632</EPOCH><MEAN_MOTION>14.36303628</MEAN_MOTION><ECCENTRICITY>.0002995</ECCENTRICITY><INCLINATION>45.0396</INCLINATION><RA_OF_ASC_NODE>302.1733</RA_OF_ASC_NODE><ARG_OF_PERICENTER>53.1211</ARG_OF_PERICENTER><MEAN_ANOMALY>306.9911</MEAN_ANOMALY></meanElements><tleParameters><EPHEMERIS_TYPE>0</EPHEMERIS_TYPE><CLASSIFICATION_TYPE>U</CLASSIFICATION_TYPE><NORAD_CAT_ID>25986</NORAD_CAT_ID><ELEMENT_SET_NO>999</ELEMENT_SET_NO><REV_AT_EPOCH>30674</REV_AT_EPOCH><BSTAR>.10259E-2</BSTAR><MEAN_MOTION_DOT>.2885E-4</MEAN_MOTION_DOT><MEAN_MOTION_DDOT>0</MEAN_MOTION_DDOT></tleParameters></data></segment></body></omm>
<omm id="CCSDS_OMM_VERS" version="2.0">
<header><CREATION_DATE/><ORIGINATOR/></header><body><segment><metadata><OBJECT_NAME>ORBCOMM FM38</OBJECT_NAME><OBJECT_ID>2008-031A</OBJECT_ID><CENTER_NAME>EARTH</CENTER_NAME><REF_FRAME>TEME</REF_FRAME><TIME_SYSTEM>UTC</TIME_SYSTEM><MEAN_ELEMENT_THEORY>SGP4</MEAN_ELEMENT_THEORY></metadata><data><meanElements><EPOCH>2024-12-03T13:46:11.810784</EPOCH><MEAN_MOTION>14.79702665</MEAN_MOTION><ECCENTRICITY>.0005998</ECCENTRICITY><INCLINATION>48.4377</INCLINATION><RA_OF_ASC_NODE>166.4351</RA_OF_ASC_NODE><ARG_OF_PERICENTER>269.7591</ARG_OF_PERICENTER><MEAN_ANOMALY>90.2637</MEAN_ANOMALY></meanElements><tleParameters><EPHEMERIS_TYPE>0</EPHEMERIS_TYPE><CLASSIFICATION_TYPE>U</CLASSIFICATION_TYPE><NORAD_CAT_ID>33060</NORAD_CAT_ID><ELEMENT_SET_NO>999</ELEMENT_SET_NO><REV_AT_EPOCH>88576</REV_AT_EPOCH><BSTAR>.65773E-3</BSTAR><MEAN_MOTION_DOT>.4786E-4</MEAN_MOTION_DOT><MEAN_MOTION_DDOT>0</MEAN_MOTION_DDOT></tleParameters></data></segment></body></omm>
<omm id="CCSDS_OMM_VERS" version="2.0">
<header><CREATION_DATE/><ORIGINATOR/></header><body><segment><metadata><OBJECT_NAME>ORBCOMM FM41</OBJECT_NAME><OBJECT_ID>2008-031B</OBJECT_ID><CENTER_NAME>EARTH</CENTER_NAME><REF_FRAME>TEME</REF_FRAME><TIME_SYSTEM>UTC</TIME_SYSTEM><MEAN_ELEMENT_THEORY>SGP4</MEAN_ELEMENT_THEORY></metadata><data><meanElements><EPOCH>2024-12-03T12:48:12.436128</EPOCH><MEAN_MOTION>14.79347126</MEAN_MOTION><ECCENTRICITY>.0005251</ECCENTRICITY><INCLINATION>48.4412</INCLINATION><RA_OF_ASC_NODE>173.7727</RA_OF_ASC_NODE><ARG_OF_PERICENTER>255.3357</ARG_OF_PERICENTER><MEAN_ANOMALY>146.0370</MEAN_ANOMALY></meanElements><tleParameters><EPHEMERIS_TYPE>0</EPHEMERIS_TYPE><CLASSIFICATION_TYPE>U</CLASSIFICATION_TYPE><NORAD_CAT_ID>33061</NORAD_CAT_ID><ELEMENT_SET_NO>999</ELEMENT_SET_NO><REV_AT_EPOCH>88525</REV_AT_EPOCH><BSTAR>.6105E-3</BSTAR><MEAN_MOTION_DOT>.4389E-4</MEAN_MOTION_DOT><MEAN_MOTION_DDOT>0</MEAN_MOTION_DDOT></tleParameters></data></segment></body></omm>
<omm id="CCSDS_OMM_VERS" version="2.0">
<header><CREATION_DATE/><ORIGINATOR/></header><body><segment><metadata><OBJECT_NAME>ORBCOMM FM29</OBJECT_NAME><OBJECT_ID>2008-031C</OBJECT_ID><CENTER_NAME>EARTH</CENTER_NAME><REF_FRAME>TEME</REF_FRAME><TIME_SYSTEM>UTC</TIME_SYSTEM><MEAN_ELEMENT_THEORY>SGP4</MEAN_ELEMENT_THEORY></metadata><data><meanElements><EPOCH>2024-12-03T14:17:50.132832</EPOCH><MEAN_MOTION>14.79375199</MEAN_MOTION><ECCENTRICITY>.0006915</ECCENTRICITY><INCLINATION>48.4364</INCLINATION><RA_OF_ASC_NODE>181.4705</RA_OF_ASC_NODE><ARG_OF_PERICENTER>256.2126</ARG_OF_PERICENTER><MEAN_ANOMALY>154.8719</MEAN_ANOMALY></meanElements><tleParameters><EPHEMERIS_TYPE>0</EPHEMERIS_TYPE><CLASSIFICATION_TYPE>U</CLASSIFICATION_TYPE><NORAD_CAT_ID>33062</NORAD_CAT_ID><ELEMENT_SET_NO>999</ELEMENT_SET_NO><REV_AT_EPOCH>88517</REV_AT_EPOCH><BSTAR>.5972E-3</BSTAR><MEAN_MOTION_DOT>.4292E-4</MEAN_MOTION_DOT><MEAN_MOTION_DDOT>0</MEAN_MOTION_DDOT></tleParameters></data></segment></body></omm>
<omm id="CCSDS_OMM_VERS" version="2.0">
<header><CREATION_DATE/><ORIGINATOR/></header><body><segment><metadata><OBJECT_NAME>ORBCOMM FM39</OBJECT_NAME><OBJECT_ID>2008-031D</OBJECT_ID><CENTER_NAME>EARTH</CENTER_NAME><REF_FRAME>TEME</REF_FRAME><TIME_SYSTEM>UTC</TIME_SYSTEM><MEAN_ELEMENT_THEORY>SGP4</MEAN_ELEMENT_THEORY></metadata><data><meanElements><EPOCH>2024-12-03T08:51:51.943680</EPOCH><MEAN_MOTION>14.78125995</MEAN_MOTION><ECCENTRICITY>.0007787</ECCENTRICITY><INCLINATION>48.4383</INCLINATION><RA_OF_ASC_NODE>204.8025</RA_OF_ASC_NODE><ARG_OF_PERICENTER>232.6089</ARG_OF_PERICENTER><MEAN_ANOMALY>127.4117</MEAN_ANOMALY></meanElements><tleParameters><EPHEMERIS_TYPE>0</EPHEMERIS_TYPE><CLASSIFICATION_TYPE>U</CLASSIFICATION_TYPE><NORAD_CAT_ID>33063</NORAD_CAT_ID><ELEMENT_SET_NO>999</ELEMENT_SET_NO><REV_AT_EPOCH>88481</REV_AT_EPOCH><BSTAR>.59854E-3</BSTAR><MEAN_MOTION_DOT>.4172E-4</MEAN_MOTION_DOT><MEAN_MOTION_DDOT>0</MEAN_MOTION_DDOT></tleParameters></data></segment></body></omm>

</ndm>
