ORBCOMM FM33            
1 25983U 99065D   24338.04475123  .00002573  00000+0  87128-3 0  9997
2 25983  45.0270 210.8469 0008481 150.3653 209.7678 14.38993313307802
ORBCOMM FM36            
1 25984U 99065E   24338.58528663  .00003892  00000+0  13450-2 0  9996
2 25984  45.0399 297.1976 0004062  13.0884 347.0069 14.37102079306278
ORBCOMM FM35            
1 25985U 99065F   24338.22589870  .00003122  00000+0  11069-2 0  9995
2 25985  45.0402 302.4877 0001663 136.4038 223.6941 14.36271299306604
ORBCOMM FM34            
1 25986U 99065G   24338.40584988  .00002885  00000+0  10259-2 0  9996
2 25986  45.0396 302.1733 0002995  53.1211 306.9911 14.36303628306741
ORBCOMM FM38            
1 33060U 08031A   24338.57374781  .00004786  00000+0  65773-3 0  9991
2 33060  48.4377 166.4351 0005998 269.7591  90.2637 14.79702665885761
ORBCOMM FM41            
1 33061U 08031B   24338.53347727  .00004389  00000+0  61050-3 0  9991
2 33061  48.4412 173.7727 0005251 255.3357 146.0370 14.79347126885258
ORBCOMM FM29            
1 33062U 08031C   24338.59571913  .00004292  00000+0  59720-3 0  9998
2 33062  48.4364 181.4705 0006915 256.2126 154.8719 14.79375199885175
ORBCOMM FM39            
1 33063U 08031D   24338.36935120  .00004172  00000+0  59854-3 0  9993
2 33063  48.4383 204.8025 0007787 232.6089 127.4117 14.78125995884810
